[{"OBJECT_NAME":"ONEWEB-0537","OBJECT_ID":"2023-043A","EPOCH":"2026-04-23T07:47:42.592128","MEAN_MOTION":13.16594304,"ECCENTRICITY":0.0001677,"INCLINATION":87.9076,"RA_OF_ASC_NODE":239.6682,"ARG_OF_PERICENTER":105.6946,"MEAN_ANOMALY":254.437,"EPHEMERIS_TYPE":0,"CLASSIFICATION_TYPE":"U","NORAD_CAT_ID":56046,"ELEMENT_SET_NO":999,"REV_AT_EPOCH":15174,"BSTAR":0.00025817,"MEAN_MOTION_DOT":1.12e-06,"MEAN_MOTION_DDOT":0.0},{"OBJECT_NAME":"ONEWEB-0538","OBJECT_ID":"2023-043B","EPOCH":"2026-04-23T07:38:34.308960","MEAN_MOTION":13.16591612,"ECCENTRICITY":0.0001674,"INCLINATION":87.9078,"RA_OF_ASC_NODE":239.6713,"ARG_OF_PERICENTER":95.7155,"MEAN_ANOMALY":264.4166,"EPHEMERIS_TYPE":0,"CLASSIFICATION_TYPE":"U","NORAD_CAT_ID":56047,"ELEMENT_SET_NO":999,"REV_AT_EPOCH":15175,"BSTAR":7.508200000000001e-05,"MEAN_MOTION_DOT":4.2e-07,"MEAN_MOTION_DDOT":0.0},{"OBJECT_NAME":"ONEWEB-0546","OBJECT_ID":"2023-043C","EPOCH":"2026-04-23T01:52:02.390880","MEAN_MOTION":13.16593307,"ECCENTRICITY":0.0001453,"INCLINATION":87.9078,"RA_OF_ASC_NODE":239.7185,"ARG_OF_PERICENTER":120.5999,"MEAN_ANOMALY":239.5275,"EPHEMERIS_TYPE":0,"CLASSIFICATION_TYPE":"U","NORAD_CAT_ID":56048,"ELEMENT_SET_NO":999,"REV_AT_EPOCH":15171,"BSTAR":-0.00029942,"MEAN_MOTION_DOT":-1.02e-06,"MEAN_MOTION_DDOT":0.0},{"OBJECT_NAME":"ONEWEB-0547","OBJECT_ID":"2023-043D","EPOCH":"2026-04-22T20:07:13.255104","MEAN_MOTION":13.21825972,"ECCENTRICITY":0.0001885,"INCLINATION":87.9221,"RA_OF_ASC_NODE":254.993,"ARG_OF_PERICENTER":93.502,"MEAN_ANOMALY":266.6329,"EPHEMERIS_TYPE":0,"CLASSIFICATION_TYPE":"U","NORAD_CAT_ID":56049,"ELEMENT_SET_NO":999,"REV_AT_EPOCH":15091,"BSTAR":0.00040208,"MEAN_MOTION_DOT":1.79e-06,"MEAN_MOTION_DDOT":0.0},{"OBJECT_NAME":"ONEWEB-0548","OBJECT_ID":"2023-043E","EPOCH":"2026-04-23T02:27:20.680416","MEAN_MOTION":13.16594651,"ECCENTRICITY":0.0002268,"INCLINATION":87.9076,"RA_OF_ASC_NODE":239.7115,"ARG_OF_PERICENTER":108.958,"MEAN_ANOMALY":251.1797,"EPHEMERIS_TYPE":0,"CLASSIFICATION_TYPE":"U","NORAD_CAT_ID":56050,"ELEMENT_SET_NO":999,"REV_AT_EPOCH":15171,"BSTAR":-0.00044215,"MEAN_MOTION_DOT":-1.56e-06,"MEAN_MOTION_DDOT":0.0},{"OBJECT_NAME":"ONEWEB-0549","OBJECT_ID":"2023-043F","EPOCH":"2026-04-23T03:14:46.561632","MEAN_MOTION":13.21827106,"ECCENTRICITY":0.000174,"INCLINATION":87.9209,"RA_OF_ASC_NODE":254.9435,"ARG_OF_PERICENTER":91.4767,"MEAN_ANOMALY":268.6567,"EPHEMERIS_TYPE":0,"CLASSIFICATION_TYPE":"U","NORAD_CAT_ID":56051,"ELEMENT_SET_NO":999,"REV_AT_EPOCH":15095,"BSTAR":1.2163e-05,"MEAN_MOTION_DOT":1.8e-07,"MEAN_MOTION_DDOT":0.0},{"OBJECT_NAME":"ONEWEB-0550","OBJECT_ID":"2023-043G","EPOCH":"2026-04-23T02:55:23.932992","MEAN_MOTION":13.21827097,"ECCENTRICITY":0.0002102,"INCLINATION":87.9212,"RA_OF_ASC_NODE":254.9427,"ARG_OF_PERICENTER":104.8011,"MEAN_ANOMALY":255.3356,"EPHEMERIS_TYPE":0,"CLASSIFICATION_TYPE":"U","NORAD_CAT_ID":56052,"ELEMENT_SET_NO":999,"REV_AT_EPOCH":15095,"BSTAR":0.00016791,"MEAN_MOTION_DOT":8.2e-07,"MEAN_MOTION_DDOT":0.0},{"OBJECT_NAME":"ONEWEB-0551","OBJECT_ID":"2023-043H","EPOCH":"2026-04-22T20:40:38.840160","MEAN_MOTION":13.15547493,"ECCENTRICITY":0.0001742,"INCLINATION":87.8941,"RA_OF_ASC_NODE":270.2623,"ARG_OF_PERICENTER":86.6115,"MEAN_ANOMALY":273.5214,"EPHEMERIS_TYPE":0,"CLASSIFICATION_TYPE":"U","NORAD_CAT_ID":56053,"ELEMENT_SET_NO":999,"REV_AT_EPOCH":14912,"BSTAR":-0.00027129,"MEAN_MOTION_DOT":-8.9e-07,"MEAN_MOTION_DDOT":0.0},{"OBJECT_NAME":"ONEWEB-0552","OBJECT_ID":"2023-043J","EPOCH":"2026-04-22T15:54:06.873120","MEAN_MOTION":13.21826422,"ECCENTRICITY":0.0002015,"INCLINATION":87.9208,"RA_OF_ASC_NODE":255.0412,"ARG_OF_PERICENTER":95.174,"MEAN_ANOMALY":264.9623,"EPHEMERIS_TYPE":0,"CLASSIFICATION_TYPE":"U","NORAD_CAT_ID":56054,"ELEMENT_SET_NO":999,"REV_AT_EPOCH":15089,"BSTAR":0.00010746,"MEAN_MOTION_DOT":5.7e-07,"MEAN_MOTION_DDOT":0.0},{"OBJECT_NAME":"ONEWEB-0553","OBJECT_ID":"2023-043K","EPOCH":"2026-04-23T07:29:28.134816","MEAN_MOTION":13.16593796,"ECCENTRICITY":0.0001731,"INCLINATION":87.9076,"RA_OF_ASC_NODE":239.6735,"ARG_OF_PERICENTER":114.5465,"MEAN_ANOMALY":245.5846,"EPHEMERIS_TYPE":0,"CLASSIFICATION_TYPE":"U","NORAD_CAT_ID":56055,"ELEMENT_SET_NO":999,"REV_AT_EPOCH":15175,"BSTAR":9.8718e-05,"MEAN_MOTION_DOT":5.1e-07,"MEAN_MOTION_DDOT":0.0},{"OBJECT_NAME":"ONEWEB-0554","OBJECT_ID":"2023-043L","EPOCH":"2026-04-23T07:11:13.923744","MEAN_MOTION":13.16593725,"ECCENTRICITY":0.0002089,"INCLINATION":87.9076,"RA_OF_ASC_NODE":239.6856,"ARG_OF_PERICENTER":108.8615,"MEAN_ANOMALY":251.2743,"EPHEMERIS_TYPE":0,"CLASSIFICATION_TYPE":"U","NORAD_CAT_ID":56056,"ELEMENT_SET_NO":999,"REV_AT_EPOCH":15173,"BSTAR":7.027200000000001e-05,"MEAN_MOTION_DOT":4e-07,"MEAN_MOTION_DDOT":0.0},{"OBJECT_NAME":"ONEWEB-0555","OBJECT_ID":"2023-043M","EPOCH":"2026-04-23T02:37:36.956064","MEAN_MOTION":13.16592145,"ECCENTRICITY":0.0001564,"INCLINATION":87.9078,"RA_OF_ASC_NODE":239.7094,"ARG_OF_PERICENTER":119.6982,"MEAN_ANOMALY":240.4305,"EPHEMERIS_TYPE":0,"CLASSIFICATION_TYPE":"U","NORAD_CAT_ID":56057,"ELEMENT_SET_NO":999,"REV_AT_EPOCH":15171,"BSTAR":0.00034402,"MEAN_MOTION_DOT":1.44e-06,"MEAN_MOTION_DDOT":0.0},{"OBJECT_NAME":"ONEWEB-0557","OBJECT_ID":"2023-043N","EPOCH":"2026-04-23T06:37:01.938432","MEAN_MOTION":13.16594409,"ECCENTRICITY":0.0002578,"INCLINATION":87.9077,"RA_OF_ASC_NODE":239.6873,"ARG_OF_PERICENTER":130.4709,"MEAN_ANOMALY":229.6647,"EPHEMERIS_TYPE":0,"CLASSIFICATION_TYPE":"U","NORAD_CAT_ID":56058,"ELEMENT_SET_NO":999,"REV_AT_EPOCH":15173,"BSTAR":0.00012377000000000002,"MEAN_MOTION_DOT":6e-07,"MEAN_MOTION_DDOT":0.0},{"OBJECT_NAME":"ONEWEB-0558","OBJECT_ID":"2023-043P","EPOCH":"2026-04-23T02:38:24.616896","MEAN_MOTION":13.2182843,"ECCENTRICITY":0.0001805,"INCLINATION":87.9212,"RA_OF_ASC_NODE":254.9454,"ARG_OF_PERICENTER":85.1371,"MEAN_ANOMALY":274.9969,"EPHEMERIS_TYPE":0,"CLASSIFICATION_TYPE":"U","NORAD_CAT_ID":56059,"ELEMENT_SET_NO":999,"REV_AT_EPOCH":15096,"BSTAR":5.8493e-05,"MEAN_MOTION_DOT":3.7e-07,"MEAN_MOTION_DDOT":0.0},{"OBJECT_NAME":"ONEWEB-0559","OBJECT_ID":"2023-043Q","EPOCH":"2026-04-23T02:21:27.010656","MEAN_MOTION":13.21834364,"ECCENTRICITY":0.000186,"INCLINATION":87.9213,"RA_OF_ASC_NODE":254.941,"ARG_OF_PERICENTER":93.3226,"MEAN_ANOMALY":266.8121,"EPHEMERIS_TYPE":0,"CLASSIFICATION_TYPE":"U","NORAD_CAT_ID":56060,"ELEMENT_SET_NO":999,"REV_AT_EPOCH":15097,"BSTAR":0.0029911,"MEAN_MOTION_DOT":1.249e-05,"MEAN_MOTION_DDOT":0.0},{"OBJECT_NAME":"ONEWEB-0566","OBJECT_ID":"2023-043R","EPOCH":"2026-04-23T07:38:46.038624","MEAN_MOTION":13.21826818,"ECCENTRICITY":0.0001903,"INCLINATION":87.9212,"RA_OF_ASC_NODE":254.8961,"ARG_OF_PERICENTER":89.4588,"MEAN_ANOMALY":270.6764,"EPHEMERIS_TYPE":0,"CLASSIFICATION_TYPE":"U","NORAD_CAT_ID":56061,"ELEMENT_SET_NO":999,"REV_AT_EPOCH":15098,"BSTAR":8.1211e-05,"MEAN_MOTION_DOT":4.7e-07,"MEAN_MOTION_DDOT":0.0}]