ONEWEB-0537             
1 56046U 23043A   26113.32479852  .00000112  00000+0  25817-3 0  9995
2 56046  87.9076 239.6682 0001677 105.6946 254.4370 13.16594304151747
ONEWEB-0538             
1 56047U 23043B   26113.31845265  .00000042  00000+0  75082-4 0  9992
2 56047  87.9078 239.6713 0001674  95.7155 264.4166 13.16591612151757
ONEWEB-0546             
1 56048U 23043C   26113.07780545 -.00000102  00000+0 -29942-3 0  9997
2 56048  87.9078 239.7185 0001453 120.5999 239.5275 13.16593307151713
ONEWEB-0547             
1 56049U 23043D   26112.83834786  .00000179  00000+0  40208-3 0  9998
2 56049  87.9221 254.9930 0001885  93.5020 266.6329 13.21825972150918
ONEWEB-0548             
1 56050U 23043E   26113.10232269 -.00000156  00000+0 -44215-3 0  9998
2 56050  87.9076 239.7115 0002268 108.9580 251.1797 13.16594651151710
ONEWEB-0549             
1 56051U 23043F   26113.13526113  .00000018  00000+0  12163-4 0  9999
2 56051  87.9209 254.9435 0001740  91.4767 268.6567 13.21827106150953
ONEWEB-0550             
1 56052U 23043G   26113.12180478  .00000082  00000+0  16791-3 0  9990
2 56052  87.9212 254.9427 0002102 104.8011 255.3356 13.21827097150951
ONEWEB-0551             
1 56053U 23043H   26112.86156065 -.00000089  00000+0 -27129-3 0  9992
2 56053  87.8941 270.2623 0001742  86.6115 273.5214 13.15547493149124
ONEWEB-0552             
1 56054U 23043J   26112.66257955  .00000057  00000+0  10746-3 0  9991
2 56054  87.9208 255.0412 0002015  95.1740 264.9623 13.21826422150895
ONEWEB-0553             
1 56055U 23043K   26113.31213119  .00000051  00000+0  98718-4 0  9999
2 56055  87.9076 239.6735 0001731 114.5465 245.5846 13.16593796151756
ONEWEB-0554             
1 56056U 23043L   26113.29946671  .00000040  00000+0  70272-4 0  9996
2 56056  87.9076 239.6856 0002089 108.8615 251.2743 13.16593725151731
ONEWEB-0555             
1 56057U 23043M   26113.10945551  .00000144  00000+0  34402-3 0  9992
2 56057  87.9078 239.7094 0001564 119.6982 240.4305 13.16592145151710
ONEWEB-0557             
1 56058U 23043N   26113.27571688  .00000060  00000+0  12377-3 0  9991
2 56058  87.9077 239.6873 0002578 130.4709 229.6647 13.16594409151733
ONEWEB-0558             
1 56059U 23043P   26113.11000714  .00000037  00000+0  58493-4 0  9996
2 56059  87.9212 254.9454 0001805  85.1371 274.9969 13.21828430150967
ONEWEB-0559             
1 56060U 23043Q   26113.09822929  .00001249  00000+0  29911-2 0  9992
2 56060  87.9213 254.9410 0001860  93.3226 266.8121 13.21834364150977
ONEWEB-0566             
1 56061U 23043R   26113.31858841  .00000047  00000+0  81211-4 0  9998
2 56061  87.9212 254.8961 0001903  89.4588 270.6764 13.21826818150984
